{
  "norad_id": 28899,
  "name": "INMARSAT 4-F2",
  "history": [
    {
      "epoch": "2026-03-28T13:25:51.619008Z",
      "apogee_km": 35799.17277345072,
      "perigee_km": 35774.42195697835,
      "latitude_deg": 3.9727862184988787,
      "longitude_deg": 143.62574683171607,
      "height_km": 35796.62360183662,
      "semi_major_axis_km": 42164.93436521454,
      "eccentricity": 0.0002935,
      "inclination_deg": 4.991,
      "raan_deg": 43.7951,
      "arg_perigee_deg": 337.4395,
      "mean_anomaly_deg": 149.6921,
      "mean_motion_rev_day": 1.00271063
    },
    {
      "epoch": "2026-03-28T19:55:51.557376Z",
      "apogee_km": 35798.75910379901,
      "perigee_km": 35774.51435890349,
      "latitude_deg": -3.5037505608472026,
      "longitude_deg": 143.36888548069197,
      "height_km": 35791.84609469945,
      "semi_major_axis_km": 42164.773731351255,
      "eccentricity": 0.0002875,
      "inclination_deg": 4.9906,
      "raan_deg": 43.7944,
      "arg_perigee_deg": 340.2953,
      "mean_anomaly_deg": 244.6056,
      "mean_motion_rev_day": 1.00271636
    },
    {
      "epoch": "2026-03-29T09:12:38.883168Z",
      "apogee_km": 35798.817451936484,
      "perigee_km": 35774.0921353087,
      "latitude_deg": 4.494970491395118,
      "longitude_deg": 143.45584974913746,
      "height_km": 35784.45004634333,
      "semi_major_axis_km": 42164.591793622596,
      "eccentricity": 0.0002932,
      "inclination_deg": 4.9914,
      "raan_deg": 43.795,
      "arg_perigee_deg": 339.7118,
      "mean_anomaly_deg": 84.9327,
      "mean_motion_rev_day": 1.00272285
    },
    {
      "epoch": "2026-03-30T07:43:51.548160Z",
      "apogee_km": 35799.73765276601,
      "perigee_km": 35773.73204640405,
      "latitude_deg": 3.4117256896638595,
      "longitude_deg": 143.42482827353828,
      "height_km": 35779.725250606454,
      "semi_major_axis_km": 42164.87184958503,
      "eccentricity": 0.00030838,
      "inclination_deg": 4.9929,
      "raan_deg": 43.7925,
      "arg_perigee_deg": 341.6585,
      "mean_anomaly_deg": 61.7131,
      "mean_motion_rev_day": 1.00271286
    }
  ]
}